{
  "type": "FeatureCollection",
  "features": [
    {
      "type": "Feature",
      "properties": {
        "norad_id": 58701,
        "name": "TIANMU-1 16",
        "group": "weather",
        "lat": 50.793457202495304,
        "lon": -8.269664724272,
        "alt_km": 491.4613917165534,
        "timestamp": "2025-12-07T14:37:04.853447+00:00",
        "meta_object_name": "TIANMU-1 16",
        "meta_object_id": "2024-004B",
        "meta_epoch": "2025-12-06T22:18:04.133664",
        "meta_mean_motion": 15.24314624,
        "meta_eccentricity": 0.00048499,
        "meta_inclination": 97.4564,
        "meta_ra_of_asc_node": 161.8153,
        "meta_arg_of_pericenter": 320.8315,
        "meta_mean_anomaly": 39.2571,
        "meta_ephemeris_type": 0,
        "meta_classification_type": "U",
        "meta_norad_cat_id": 58701,
        "meta_element_set_no": 999,
        "meta_rev_at_epoch": 10646,
        "meta_bstar": 0.00044097206,
        "meta_mean_motion_dot": 0.00010718,
        "meta_mean_motion_ddot": 0,
        "tle_line1": "1 58701U 24004B   25340.92921451  .00010718  00000+0  44097-3 0  9991",
        "tle_line2": "2 58701  97.4564 161.8153 0004849 320.8315  39.2571 15.24314624106466"
      },
      "geometry": {
        "type": "Point",
        "coordinates": [
          -8.269664724272,
          50.793457202495304
        ]
      }
    },
    {
      "type": "Feature",
      "properties": {
        "norad_id": 58702,
        "name": "TIANMU-1 17",
        "group": "weather",
        "lat": -31.957014940538613,
        "lon": -21.789495414448098,
        "alt_km": 499.78734728594554,
        "timestamp": "2025-12-07T14:37:04.853457+00:00",
        "meta_object_name": "TIANMU-1 17",
        "meta_object_id": "2024-004C",
        "meta_epoch": "2025-12-06T21:56:07.806336",
        "meta_mean_motion": 15.24360082,
        "meta_eccentricity": 0.0004043,
        "meta_inclination": 97.4599,
        "meta_ra_of_asc_node": 162.2073,
        "meta_arg_of_pericenter": 324.9573,
        "meta_mean_anomaly": 35.1398,
        "meta_ephemeris_type": 0,
        "meta_classification_type": "U",
        "meta_norad_cat_id": 58702,
        "meta_element_set_no": 999,
        "meta_rev_at_epoch": 10645,
        "meta_bstar": 0.00043557464,
        "meta_mean_motion_dot": 0.000106,
        "meta_mean_motion_ddot": 0,
        "tle_line1": "1 58702U 24004C   25340.91397924  .00010600  00000+0  43557-3 0  9993",
        "tle_line2": "2 58702  97.4599 162.2073 0004043 324.9573  35.1398 15.24360082106458"
      },
      "geometry": {
        "type": "Point",
        "coordinates": [
          -21.789495414448098,
          -31.957014940538613
        ]
      }
    },
    {
      "type": "Feature",
      "properties": {
        "norad_id": 58703,
        "name": "TIANMU-1 18",
        "group": "weather",
        "lat": -55.4441609576107,
        "lon": 174.06358396064553,
        "alt_km": 497.5961806876303,
        "timestamp": "2025-12-07T14:37:04.853467+00:00",
        "meta_object_name": "TIANMU-1 18",
        "meta_object_id": "2024-004D",
        "meta_epoch": "2025-12-06T23:06:33.948288",
        "meta_mean_motion": 15.24351569,
        "meta_eccentricity": 0.0003392,
        "meta_inclination": 97.4616,
        "meta_ra_of_asc_node": 162.45,
        "meta_arg_of_pericenter": 326.5979,
        "meta_mean_anomaly": 33.5044,
        "meta_ephemeris_type": 0,
        "meta_classification_type": "U",
        "meta_norad_cat_id": 58703,
        "meta_element_set_no": 999,
        "meta_rev_at_epoch": 10646,
        "meta_bstar": 0.00040737536,
        "meta_mean_motion_dot": 9.905e-05,
        "meta_mean_motion_ddot": 0,
        "tle_line1": "1 58703U 24004D   25340.96289292  .00009905  00000+0  40738-3 0  9991",
        "tle_line2": "2 58703  97.4616 162.4500 0003392 326.5979  33.5044 15.24351569106461"
      },
      "geometry": {
        "type": "Point",
        "coordinates": [
          174.06358396064553,
          -55.4441609576107
        ]
      }
    },
    {
      "type": "Feature",
      "properties": {
        "norad_id": 58990,
        "name": "INSAT-3DS",
        "group": "weather",
        "lat": 0.006702621476744859,
        "lon": 17.99834202233203,
        "alt_km": 35789.743961549735,
        "timestamp": "2025-12-07T14:37:04.853481+00:00",
        "meta_object_name": "INSAT-3DS",
        "meta_object_id": "2024-033A",
        "meta_epoch": "2025-12-06T20:54:15.090336",
        "meta_mean_motion": 1.00269653,
        "meta_eccentricity": 0.00017318,
        "meta_inclination": 0.009,
        "meta_ra_of_asc_node": 25.8708,
        "meta_arg_of_pericenter": 237.7213,
        "meta_mean_anomaly": 207.9664,
        "meta_ephemeris_type": 0,
        "meta_classification_type": "U",
        "meta_norad_cat_id": 58990,
        "meta_element_set_no": 999,
        "meta_rev_at_epoch": 4514,
        "meta_bstar": 0,
        "meta_mean_motion_dot": -1.5e-06,
        "meta_mean_motion_ddot": 0,
        "tle_line1": "1 58990U 24033A   25340.87100799 -.00000150  00000+0  00000+0 0  9993",
        "tle_line2": "2 58990   0.0090  25.8708 0001731 237.7213 207.9664  1.00269653 45149"
      },
      "geometry": {
        "type": "Point",
        "coordinates": [
          17.99834202233203,
          0.006702621476744859
        ]
      }
    },
    {
      "type": "Feature",
      "properties": {
        "norad_id": 59051,
        "name": "METEOR-M2 4",
        "group": "weather",
        "lat": -19.54667336591595,
        "lon": 115.4909835597746,
        "alt_km": 827.5894714617243,
        "timestamp": "2025-12-07T14:37:04.853492+00:00",
        "meta_object_name": "METEOR-M2 4",
        "meta_object_id": "2024-039A",
        "meta_epoch": "2025-12-06T22:29:17.069568",
        "meta_mean_motion": 14.22399858,
        "meta_eccentricity": 0.00073613,
        "meta_inclination": 98.6759,
        "meta_ra_of_asc_node": 297.9371,
        "meta_arg_of_pericenter": 14.9429,
        "meta_mean_anomaly": 345.1965,
        "meta_ephemeris_type": 0,
        "meta_classification_type": "U",
        "meta_norad_cat_id": 59051,
        "meta_element_set_no": 999,
        "meta_rev_at_epoch": 9193,
        "meta_bstar": 5.770952e-05,
        "meta_mean_motion_dot": 8.5e-07,
        "meta_mean_motion_ddot": 0,
        "tle_line1": "1 59051U 24039A   25340.93700312  .00000085  00000+0  57710-4 0  9993",
        "tle_line2": "2 59051  98.6759 297.9371 0007361  14.9429 345.1965 14.22399858 91936"
      },
      "geometry": {
        "type": "Point",
        "coordinates": [
          115.4909835597746,
          -19.54667336591595
        ]
      }
    },
    {
      "type": "Feature",
      "properties": {
        "norad_id": 60133,
        "name": "GOES 19",
        "group": "weather",
        "lat": -0.002551530583593765,
        "lon": -139.31304405953205,
        "alt_km": 35785.61913403941,
        "timestamp": "2025-12-07T14:37:04.853504+00:00",
        "meta_object_name": "GOES 19",
        "meta_object_id": "2024-119A",
        "meta_epoch": "2025-12-06T21:52:09.543648",
        "meta_mean_motion": 1.00270052,
        "meta_eccentricity": 0.00014418,
        "meta_inclination": 0.0074,
        "meta_ra_of_asc_node": 83.119,
        "meta_arg_of_pericenter": 218.232,
        "meta_mean_anomaly": 27.4459,
        "meta_ephemeris_type": 0,
        "meta_classification_type": "U",
        "meta_norad_cat_id": 60133,
        "meta_element_set_no": 999,
        "meta_rev_at_epoch": 503,
        "meta_bstar": 0,
        "meta_mean_motion_dot": -2.43e-06,
        "meta_mean_motion_ddot": 0,
        "tle_line1": "1 60133U 24119A   25340.91122157 -.00000243  00000+0  00000+0 0  9990",
        "tle_line2": "2 60133   0.0074  83.1190 0001441 218.2320  27.4459  1.00270052  5032"
      },
      "geometry": {
        "type": "Point",
        "coordinates": [
          -139.31304405953205,
          -0.002551530583593765
        ]
      }
    },
    {
      "type": "Feature",
      "properties": {
        "norad_id": 65815,
        "name": "FENGYUN 3H",
        "group": "weather",
        "lat": 54.35117484354584,
        "lon": 113.57591445195685,
        "alt_km": 820.2065951810646,
        "timestamp": "2025-12-07T14:37:04.853517+00:00",
        "meta_object_name": "FENGYUN 3H",
        "meta_object_id": "2025-219A",
        "meta_epoch": "2025-12-06T21:07:15.260736",
        "meta_mean_motion": 14.19902148,
        "meta_eccentricity": 6.154e-05,
        "meta_inclination": 98.6576,
        "meta_ra_of_asc_node": 280.5979,
        "meta_arg_of_pericenter": 78.9285,
        "meta_mean_anomaly": 281.1961,
        "meta_ephemeris_type": 0,
        "meta_classification_type": "U",
        "meta_norad_cat_id": 65815,
        "meta_element_set_no": 999,
        "meta_rev_at_epoch": 1009,
        "meta_bstar": 0.00011996368,
        "meta_mean_motion_dot": 2.11e-06,
        "meta_mean_motion_ddot": 0,
        "tle_line1": "1 65815U 25219A   25340.88003774  .00000211  00000+0  11996-3 0  9997",
        "tle_line2": "2 65815  98.6576 280.5979 0000615  78.9285 281.1961 14.19902148 10096"
      },
      "geometry": {
        "type": "Point",
        "coordinates": [
          113.57591445195685,
          54.35117484354584
        ]
      }
    }
  ]
}